GPS BIIR-5  (PRN 22)    
1 26407U 00040A   26204.44449334  .00000088  00000+0  00000+0 0  9996
2 26407  54.8477 213.7220 0120292 302.8465 239.9178  2.00558038190670
GPS BIIR-8  (PRN 16)    
1 27663U 03005A   26204.12182911  .00000087  00000+0  00000+0 0  9994
2 27663  54.8781 213.5410 0148456  53.2052  32.8116  2.00558718172030
GPS BIIR-11 (PRN 19)    
1 28190U 04009A   26203.10079940 -.00000041  00000+0  00000+0 0  9990
2 28190  54.8010 274.2748 0117386 174.6364  46.5669  2.00553594163640
GPS BIIR-13 (PRN 02)    
1 28474U 04045A   26203.72416769 -.00000112  00000+0  00000+0 0  9996
2 28474  55.1131 323.4649 0170333 317.2409  59.2092  2.00557577159142
GPS BIIRM-1 (PRN 17)    
1 28874U 05038A   26204.24434278 -.00000024  00000+0  00000+0 0  9998
2 28874  54.8493 271.7203 0128346 296.5220  60.3256  2.00563316152552
GPS BIIRM-2 (PRN 31)    
1 29486U 06042A   26203.90730398  .00000012  00000+0  00000+0 0  9994
2 29486  54.7132 149.9207 0107400  55.3867 317.1838  2.00567878145117
GPS BIIRM-3 (PRN 12)    
1 29601U 06052A   26203.81820194  .00000087  00000+0  00000+0 0  9990
2 29601  54.9317 212.5938 0084743  91.0163 269.9892  2.00560215144123
GPS BIIRM-4 (PRN 15)    
1 32260U 07047A   26204.12413520 -.00000071  00000+0  00000+0 0  9990
2 32260  54.1219  78.5842 0168029  88.1819 273.7984  2.00553724137539
GPS BIIRM-5 (PRN 29)    
1 32384U 07062A   26203.44714995 -.00000034  00000+0  00000+0 0  9997
2 32384  55.0037 272.7334 0036068 168.2064 191.1622  2.00562126136219
GPS BIIRM-6 (PRN 07)    
1 32711U 08012A   26203.53348377  .00000013  00000+0  00000+0 0  9990
2 32711  54.5005 148.5127 0211739 248.2184 109.4947  2.00573426134466
GPS BIIRM-8 (PRN 05)    
1 35752U 09043A   26204.51743444 -.00000078  00000+0  00000+0 0  9998
2 35752  56.2331  26.0264 0053636  84.7546 272.6757  2.00552515124087
GPS BIIF-1  (PRN 25)    
1 36585U 10022A   26204.35549876  .00000088  00000+0  00000+0 0  9997
2 36585  54.2680 207.1051 0126926  66.1655 294.6222  2.00564259118319
GPS BIIF-3  (PRN 24)    
1 38833U 12053A   26204.21294117 -.00000008  00000+0  00000+0 0  9994
2 38833  53.5904 142.1233 0182550  66.3747 295.5069  2.00568155100169
GPS BIIF-4  (PRN 27)    
1 39166U 13023A   26203.08371062 -.00000025  00000+0  00000+0 0  9990
2 39166  54.4778 267.5502 0141404  51.1079 310.2126  2.00563446 96589
GPS BIIF-5  (PRN 30)    
1 39533U 14008A   26204.08273978  .00000004  00000+0  00000+0 0  9996
2 39533  53.6583 147.8555 0084019 231.5746 127.6451  2.00562163 90404
GPS BIIF-6  (PRN 06)    
1 39741U 14026A   26203.86045151 -.00000112  00000+0  00000+0 0  9993
2 39741  56.4788 330.1290 0038193 325.5577  34.2000  2.00558517 89256
GPS BIIF-7  (PRN 09)    
1 40105U 14045A   26202.95485964 -.00000067  00000+0  00000+0 0  9998
2 40105  55.3757  87.0796 0034731 118.5166 241.8833  2.00560807 86772
GPS BIIF-8  (PRN 03)    
1 40294U 14068A   26204.31923838 -.00000075  00000+0  00000+0 0  9990
2 40294  57.0124  29.5642 0067458  72.5690 288.2082  2.00553866 85937
GPS BIIF-9  (PRN 26)    
1 40534U 15013A   26201.96718444  .00000074  00000+0  00000+0 0  9999
2 40534  53.1254 202.7533 0110322  40.4930 320.3352  2.00574219 82502
GPS BIIF-10 (PRN 08)    
1 40730U 15033A   26204.12011412 -.00000010  00000+0  00000+0 0  9992
2 40730  53.9555 265.6030 0115510  30.2978 330.4370  2.00554565 80710
GPS BIIF-11 (PRN 10)    
1 41019U 15062A   26204.17456617 -.00000075  00000+0  00000+0 0  9991
2 41019  56.9840  29.4262 0113192 230.8504 128.1758  2.00567136 78550
GPS BIIF-12 (PRN 32)    
1 41328U 16007A   26201.77276081 -.00000059  00000+0  00000+0 0  9994
2 41328  55.5446  88.1275 0096649 247.5642 111.4594  2.00575241 76514
GPS BIII-1  (PRN 04)    
1 43873U 18109A   26204.16813347 -.00000066  00000+0  00000+0 0  9992
2 43873  55.7035  90.7667 0038863 197.0184 346.6562  2.00563411 55795
GPS BIII-2  (PRN 18)    
1 44506U 19056A   26203.78587352 -.00000112  00000+0  00000+0 0  9991
2 44506  55.6178 329.7278 0063752 198.2915 333.8944  2.00570518 50781
GPS BIII-3  (PRN 23)    
1 45854U 20041A   26203.87491671 -.00000079  00000+0  00000+0 0  9994
2 45854  56.6939  27.5596 0065610 204.6648 328.6198  2.00558039 44757
GPS BIII-4  (PRN 14)    
1 46826U 20078A   26203.40249986  .00000084  00000+0  00000+0 0  9998
2 46826  53.9765 209.3500 0074707 207.9626 321.8106  2.00565122 42212
GPS BIII-5  (PRN 11)    
1 48859U 21054A   26204.47983275 -.00000113  00000+0  00000+0 0  9999
2 48859  55.1548 331.0007 0026704 228.6222 185.4073  2.00566985 37482
GPS BIII-6  (PRN 28)    
1 55268U 23009A   26203.85808700  .00000007  00000+0  00000+0 0  9994
2 55268  55.1243 147.1168 0006263 321.9041  41.9521  2.00569256 25962
GPS BIII-7  (PRN 01)    
1 62339U 24242A   26200.72170847 -.00000109  00000+0  00000+0 0  9992
2 62339  54.8338 332.8621 0017996   4.3540 337.1791  2.00572353 11908
GPS BIII-8  (PRN 21)    
1 64202U 25116A   26204.23516985 -.00000080  00000+0  00000+0 0  9999
2 64202  55.2596  29.6807 0008389 339.3259 202.3720  2.00573560  8598
GPS BIII-9  (PRN 20)    
1 67588U 26017A   26204.09379284 -.00000068  00000+0  00000+0 0  9999
2 67588  55.1115  87.3138 0021267 260.4453  99.3642  2.00570431432336
GPS BIII-10 (PRN 13)    
1 68791U 26087A   26204.05589674  .00000089  00000+0  00000+0 0  9997
2 68791  54.9614 206.3692 0020496 105.7313  72.5010  2.00573476  1551
